{
  "links" : {
    "next" : "https://api.nasa.gov/neo/rest/v1/feed?start_date=2015-05-23&end_date=2015-05-23&detailed=true&api_key=t0TVs3DtDT2H8Oy2Zy8m2eVrNsAVKAexjcZXUckd",
    "prev" : "https://api.nasa.gov/neo/rest/v1/feed?start_date=2015-05-21&end_date=2015-05-21&detailed=true&api_key=t0TVs3DtDT2H8Oy2Zy8m2eVrNsAVKAexjcZXUckd",
    "self" : "https://api.nasa.gov/neo/rest/v1/feed?start_date=2015-05-22&end_date=2015-05-22&detailed=true&api_key=t0TVs3DtDT2H8Oy2Zy8m2eVrNsAVKAexjcZXUckd"
  },
  "element_count" : 6,
  "near_earth_objects" : {
    "2015-05-22" : [ {
      "links" : {
        "self" : "https://api.nasa.gov/neo/rest/v1/neo/2433953?api_key=t0TVs3DtDT2H8Oy2Zy8m2eVrNsAVKAexjcZXUckd"
      },
      "neo_reference_id" : "2433953",
      "name" : "433953 (1997 XR2)",
      "nasa_jpl_url" : "http://ssd.jpl.nasa.gov/sbdb.cgi?sstr=2433953",
      "absolute_magnitude_h" : 20.8,
      "estimated_diameter" : {
        "kilometers" : {
          "estimated_diameter_min" : 0.1838886721,
          "estimated_diameter_max" : 0.411187571
        },
        "meters" : {
          "estimated_diameter_min" : 183.8886720703,
          "estimated_diameter_max" : 411.1875710413
        },
        "miles" : {
          "estimated_diameter_min" : 0.1142630881,
          "estimated_diameter_max" : 0.2555000322
        },
        "feet" : {
          "estimated_diameter_min" : 603.309310875,
          "estimated_diameter_max" : 1349.040630575
        }
      },
      "is_potentially_hazardous_asteroid" : true,
      "close_approach_data" : [ {
        "close_approach_date" : "2015-05-22",
        "epoch_date_close_approach" : 1432278000000,
        "relative_velocity" : {
          "kilometers_per_second" : "12.4137060271",
          "kilometers_per_hour" : "44689.341697533",
          "miles_per_hour" : "27768.2190120032"
        },
        "miss_distance" : {
          "astronomical" : "0.193908178",
          "lunar" : "75.4302825928",
          "kilometers" : "29008252",
          "miles" : "18024892"
        },
        "orbiting_body" : "Earth"
      } ],
      "orbital_data" : {
        "orbit_id" : "77",
        "orbit_determination_date" : "2017-09-26 06:51:51",
        "orbit_uncertainty" : "0",
        "minimum_orbit_intersection" : ".000135863",
        "jupiter_tisserand_invariant" : "5.719",
        "epoch_osculation" : "2458000.5",
        "eccentricity" : ".2008474662273823",
        "semi_major_axis" : "1.076207967429487",
        "inclination" : "7.191869414357382",
        "ascending_node_longitude" : "250.6909120294943",
        "orbital_period" : "407.795783743418",
        "perihelion_distance" : ".8600543240375536",
        "perihelion_argument" : "84.60446236258967",
        "aphelion_distance" : "1.292361610821421",
        "perihelion_time" : "2458050.122567627044",
        "mean_anomaly" : "316.193455013807",
        "mean_motion" : ".8827948064968451",
        "equinox" : "J2000"
      }
    }, {
      "links" : {
        "self" : "https://api.nasa.gov/neo/rest/v1/neo/3143121?api_key=t0TVs3DtDT2H8Oy2Zy8m2eVrNsAVKAexjcZXUckd"
      },
      "neo_reference_id" : "3143121",
      "name" : "(2002 XB)",
      "nasa_jpl_url" : "http://ssd.jpl.nasa.gov/sbdb.cgi?sstr=3143121",
      "absolute_magnitude_h" : 21.8,
      "estimated_diameter" : {
        "kilometers" : {
          "estimated_diameter_min" : 0.1160259082,
          "estimated_diameter_max" : 0.2594418179
        },
        "meters" : {
          "estimated_diameter_min" : 116.0259082094,
          "estimated_diameter_max" : 259.4418179074
        },
        "miles" : {
          "estimated_diameter_min" : 0.0720951346,
          "estimated_diameter_max" : 0.1612096218
        },
        "feet" : {
          "estimated_diameter_min" : 380.6624406898,
          "estimated_diameter_max" : 851.1870938635
        }
      },
      "is_potentially_hazardous_asteroid" : false,
      "close_approach_data" : [ {
        "close_approach_date" : "2015-05-22",
        "epoch_date_close_approach" : 1432278000000,
        "relative_velocity" : {
          "kilometers_per_second" : "18.3294686286",
          "kilometers_per_hour" : "65986.0870629262",
          "miles_per_hour" : "41001.1883752943"
        },
        "miss_distance" : {
          "astronomical" : "0.322740172",
          "lunar" : "125.5459213257",
          "kilometers" : "48281244",
          "miles" : "30000574"
        },
        "orbiting_body" : "Earth"
      } ],
      "orbital_data" : {
        "orbit_id" : "16",
        "orbit_determination_date" : "2017-04-06 09:14:35",
        "orbit_uncertainty" : "1",
        "minimum_orbit_intersection" : ".130683",
        "jupiter_tisserand_invariant" : "6.474",
        "epoch_osculation" : "2458000.5",
        "eccentricity" : ".2374628949357887",
        "semi_major_axis" : ".9060464302129086",
        "inclination" : "25.53697214530072",
        "ascending_node_longitude" : "245.8904052456558",
        "orbital_period" : "315.0098306891543",
        "perihelion_distance" : ".6908940219483144",
        "perihelion_argument" : "351.2560269339909",
        "aphelion_distance" : "1.121198838477503",
        "perihelion_time" : "2458107.148493046157",
        "mean_anomaly" : "238.1198116496168",
        "mean_motion" : "1.142821477070794",
        "equinox" : "J2000"
      }
    }, {
      "links" : {
        "self" : "https://api.nasa.gov/neo/rest/v1/neo/3328632?api_key=t0TVs3DtDT2H8Oy2Zy8m2eVrNsAVKAexjcZXUckd"
      },
      "neo_reference_id" : "3328632",
      "name" : "(2006 FK)",
      "nasa_jpl_url" : "http://ssd.jpl.nasa.gov/sbdb.cgi?sstr=3328632",
      "absolute_magnitude_h" : 21.2,
      "estimated_diameter" : {
        "kilometers" : {
          "estimated_diameter_min" : 0.1529519353,
          "estimated_diameter_max" : 0.3420109247
        },
        "meters" : {
          "estimated_diameter_min" : 152.9519353442,
          "estimated_diameter_max" : 342.0109247198
        },
        "miles" : {
          "estimated_diameter_min" : 0.095039897,
          "estimated_diameter_max" : 0.2125156703
        },
        "feet" : {
          "estimated_diameter_min" : 501.8108275547,
          "estimated_diameter_max" : 1122.0831222578
        }
      },
      "is_potentially_hazardous_asteroid" : false,
      "close_approach_data" : [ {
        "close_approach_date" : "2015-05-22",
        "epoch_date_close_approach" : 1432278000000,
        "relative_velocity" : {
          "kilometers_per_second" : "18.2704768555",
          "kilometers_per_hour" : "65773.7166798472",
          "miles_per_hour" : "40869.2296780973"
        },
        "miss_distance" : {
          "astronomical" : "0.345001967",
          "lunar" : "134.2057647705",
          "kilometers" : "51611560",
          "miles" : "32069936"
        },
        "orbiting_body" : "Earth"
      } ],
      "orbital_data" : {
        "orbit_id" : "22",
        "orbit_determination_date" : "2017-04-06 09:08:55",
        "orbit_uncertainty" : "0",
        "minimum_orbit_intersection" : ".194349",
        "jupiter_tisserand_invariant" : "6.406",
        "epoch_osculation" : "2458000.5",
        "eccentricity" : ".3433805045457145",
        "semi_major_axis" : ".9224692804595577",
        "inclination" : "14.61464913297356",
        "ascending_node_longitude" : "15.17350421028166",
        "orbital_period" : "323.6132503810625",
        "perihelion_distance" : ".6057113135074325",
        "perihelion_argument" : "3.199018146492104",
        "aphelion_distance" : "1.239227247411683",
        "perihelion_time" : "2457887.176493648210",
        "mean_anomaly" : "126.0654878581323",
        "mean_motion" : "1.112438998020295",
        "equinox" : "J2000"
      }
    } ]
  }
}